{
    "links": {
        "self": "http://www.neowsapp.com/rest/v1/neo/3648538?api_key=iIulBulltgU6a56xZRHN4H3l9WmuAYTsLGpBGhQ2"
    },
    "id": "3648538",
    "neo_reference_id": "3648538",
    "name": "(2013 SU19)",
    "designation": "2013 SU19",
    "nasa_jpl_url": "http://ssd.jpl.nasa.gov/sbdb.cgi?sstr=3648538",
    "absolute_magnitude_h": 24.9,
    "estimated_diameter": {
        "kilometers": {
            "estimated_diameter_min": 0.0278326768,
            "estimated_diameter_max": 0.0622357573
        },
        "meters": {
            "estimated_diameter_min": 27.8326768072,
            "estimated_diameter_max": 62.2357573367
        },
        "miles": {
            "estimated_diameter_min": 0.0172944182,
            "estimated_diameter_max": 0.0386714948
        },
        "feet": {
            "estimated_diameter_min": 91.3145593761,
            "estimated_diameter_max": 204.1855621004
        }
    },
    "is_potentially_hazardous_asteroid": false,
    "close_approach_data": [
        {
            "close_approach_date": "2013-10-10",
            "close_approach_date_full": "2013-Oct-10 07:40",
            "epoch_date_close_approach": 1381390800000,
            "relative_velocity": {
                "kilometers_per_second": "7.8900755209",
                "kilometers_per_hour": "28404.2718751899",
                "miles_per_hour": "17649.30993267"
            },
            "miss_distance": {
                "astronomical": "0.069857588",
                "lunar": "27.174601732",
                "kilometers": "10450546.36813756",
                "miles": "6493668.397755928"
            },
            "orbiting_body": "Earth"
        }
    ],
    "orbital_data": {
        "orbit_id": "7",
        "orbit_determination_date": "2017-04-06 08:44:35",
        "first_observation_date": "2013-09-24",
        "last_observation_date": "2013-10-05",
        "data_arc_in_days": 11,
        "observations_used": 26,
        "orbit_uncertainty": "8",
        "minimum_orbit_intersection": ".068369",
        "jupiter_tisserand_invariant": "3.771",
        "epoch_osculation": "2456560.5",
        "eccentricity": ".4699143519404615",
        "semi_major_axis": "1.922266623392579",
        "inclination": "7.587272332924758",
        "ascending_node_longitude": "178.6216616764203",
        "orbital_period": "973.4616900160543",
        "perihelion_distance": "1.018965948804276",
        "perihelion_argument": "224.2995530437863",
        "aphelion_distance": "2.825567297980881",
        "perihelion_time": "2456597.788925906780",
        "mean_anomaly": "346.2100240162308",
        "mean_motion": ".3698142450722051",
        "equinox": "J2000",
        "orbit_class": {
            "orbit_class_type": "AMO",
            "orbit_class_description": "Near-Earth asteroid orbits similar to that of 1221 Amor",
            "orbit_class_range": "1.017 AU < q (perihelion) < 1.3 AU"
        }
    },
    "is_sentry_object": false
}